[{"OBJECT_NAME":"COSMOS 2251 DEB","OBJECT_ID":"1993-036ADP","EPOCH":"2026-02-27T17:41:04.748928","MEAN_MOTION":14.62624432,"ECCENTRICITY":0.00268931,"INCLINATION":74.071,"RA_OF_ASC_NODE":166.5626,"ARG_OF_PERICENTER":113.3417,"MEAN_ANOMALY":37.304,"EPHEMERIS_TYPE":0,"CLASSIFICATION_TYPE":"U","NORAD_CAT_ID":34918,"ELEMENT_SET_NO":999,"REV_AT_EPOCH":66461,"BSTAR":0.0014930561,"MEAN_MOTION_DOT":7.608e-5,"MEAN_MOTION_DDOT":0},{"OBJECT_NAME":"COSMOS 2251 DEB","OBJECT_ID":"1993-036ADV","EPOCH":"2026-03-03T16:52:17.263776","MEAN_MOTION":14.60808539,"ECCENTRICITY":0.0053881,"INCLINATION":74.0397,"RA_OF_ASC_NODE":294.8843,"ARG_OF_PERICENTER":357.1109,"MEAN_ANOMALY":62.2774,"EPHEMERIS_TYPE":0,"CLASSIFICATION_TYPE":"U","NORAD_CAT_ID":34924,"ELEMENT_SET_NO":999,"REV_AT_EPOCH":88905,"BSTAR":0.00086478,"MEAN_MOTION_DOT":4.283e-5,"MEAN_MOTION_DDOT":0},{"OBJECT_NAME":"COSMOS 2251 DEB","OBJECT_ID":"1993-036ADX","EPOCH":"2026-03-03T11:30:00.446112","MEAN_MOTION":14.14402862,"ECCENTRICITY":0.02225549,"INCLINATION":73.746,"RA_OF_ASC_NODE":86.3442,"ARG_OF_PERICENTER":280.7008,"MEAN_ANOMALY":76.9145,"EPHEMERIS_TYPE":0,"CLASSIFICATION_TYPE":"U","NORAD_CAT_ID":34944,"ELEMENT_SET_NO":999,"REV_AT_EPOCH":65224,"BSTAR":0.00065947084,"MEAN_MOTION_DOT":1.572e-5,"MEAN_MOTION_DDOT":0},{"OBJECT_NAME":"COSMOS 2251 DEB","OBJECT_ID":"1993-036ADZ","EPOCH":"2026-02-28T01:28:23.728800","MEAN_MOTION":14.62511817,"ECCENTRICITY":0.00517186,"INCLINATION":74.0228,"RA_OF_ASC_NODE":193.9066,"ARG_OF_PERICENTER":310.6161,"MEAN_ANOMALY":49.0512,"EPHEMERIS_TYPE":0,"CLASSIFICATION_TYPE":"U","NORAD_CAT_ID":34946,"ELEMENT_SET_NO":999,"REV_AT_EPOCH":89339,"BSTAR":0.0005894539,"MEAN_MOTION_DOT":3.016e-5,"MEAN_MOTION_DDOT":0},{"OBJECT_NAME":"COSMOS 2251 DEB","OBJECT_ID":"1993-036AEC","EPOCH":"2026-02-28T09:37:11.534880","MEAN_MOTION":14.74531253,"ECCENTRICITY":0.00773559,"INCLINATION":74.019,"RA_OF_ASC_NODE":317.8773,"ARG_OF_PERICENTER":83.5544,"MEAN_ANOMALY":277.443,"EPHEMERIS_TYPE":0,"CLASSIFICATION_TYPE":"U","NORAD_CAT_ID":34949,"ELEMENT_SET_NO":999,"REV_AT_EPOCH":89506,"BSTAR":0.00042757878,"MEAN_MOTION_DOT":2.952e-5,"MEAN_MOTION_DDOT":0},{"OBJECT_NAME":"COSMOS 2251 DEB","OBJECT_ID":"1993-036AEG","EPOCH":"2026-03-03T12:41:26.274912","MEAN_MOTION":14.69987828,"ECCENTRICITY":0.00569056,"INCLINATION":74.0899,"RA_OF_ASC_NODE":231.4983,"ARG_OF_PERICENTER":204.1183,"MEAN_ANOMALY":214.9165,"EPHEMERIS_TYPE":0,"CLASSIFICATION_TYPE":"U","NORAD_CAT_ID":34953,"ELEMENT_SET_NO":999,"REV_AT_EPOCH":89315,"BSTAR":0.001159239,"MEAN_MOTION_DOT":7.1e-5,"MEAN_MOTION_DDOT":0},{"OBJECT_NAME":"COSMOS 2251 DEB","OBJECT_ID":"1993-036AEJ","EPOCH":"2026-02-25T18:43:40.534464","MEAN_MOTION":15.02261381,"ECCENTRICITY":0.00722267,"INCLINATION":74.035,"RA_OF_ASC_NODE":93.6554,"ARG_OF_PERICENTER":145.6439,"MEAN_ANOMALY":214.9452,"EPHEMERIS_TYPE":0,"CLASSIFICATION_TYPE":"U","NORAD_CAT_ID":34955,"ELEMENT_SET_NO":999,"REV_AT_EPOCH":91160,"BSTAR":0.00048245529,"MEAN_MOTION_DOT":6.7e-5,"MEAN_MOTION_DDOT":0},{"OBJECT_NAME":"COSMOS 2251 DEB","OBJECT_ID":"1993-036AER","EPOCH":"2026-03-03T08:28:21.895680","MEAN_MOTION":14.46838944,"ECCENTRICITY":0.0017094,"INCLINATION":74.0295,"RA_OF_ASC_NODE":42.7368,"ARG_OF_PERICENTER":144.5722,"MEAN_ANOMALY":215.6576,"EPHEMERIS_TYPE":0,"CLASSIFICATION_TYPE":"U","NORAD_CAT_ID":34962,"ELEMENT_SET_NO":999,"REV_AT_EPOCH":88744,"BSTAR":0.00057526658,"MEAN_MOTION_DOT":2.063e-5,"MEAN_MOTION_DDOT":0},{"OBJECT_NAME":"COSMOS 2251 DEB","OBJECT_ID":"1993-036AES","EPOCH":"2026-02-27T05:52:18.173856","MEAN_MOTION":14.51927779,"ECCENTRICITY":0.0041035,"INCLINATION":74.1684,"RA_OF_ASC_NODE":259.9025,"ARG_OF_PERICENTER":72.0297,"MEAN_ANOMALY":288.5332,"EPHEMERIS_TYPE":0,"CLASSIFICATION_TYPE":"U","NORAD_CAT_ID":34963,"ELEMENT_SET_NO":999,"REV_AT_EPOCH":87911,"BSTAR":0.0010482,"MEAN_MOTION_DOT":4.25e-5,"MEAN_MOTION_DDOT":0},{"OBJECT_NAME":"COSMOS 2251 DEB","OBJECT_ID":"1993-036AET","EPOCH":"2026-03-02T01:57:53.268192","MEAN_MOTION":14.00978422,"ECCENTRICITY":0.02102926,"INCLINATION":73.9689,"RA_OF_ASC_NODE":209.7047,"ARG_OF_PERICENTER":50.3303,"MEAN_ANOMALY":311.6169,"EPHEMERIS_TYPE":0,"CLASSIFICATION_TYPE":"U","NORAD_CAT_ID":34964,"ELEMENT_SET_NO":999,"REV_AT_EPOCH":85589,"BSTAR":0.0014172278,"MEAN_MOTION_DOT":2.549e-5,"MEAN_MOTION_DDOT":0},{"OBJECT_NAME":"COSMOS 2251 DEB","OBJECT_ID":"1993-036AEU","EPOCH":"2026-03-03T04:01:19.838208","MEAN_MOTION":14.48931881,"ECCENTRICITY":0.00242585,"INCLINATION":74.0541,"RA_OF_ASC_NODE":337.8704,"ARG_OF_PERICENTER":84.7044,"MEAN_ANOMALY":275.6883,"EPHEMERIS_TYPE":0,"CLASSIFICATION_TYPE":"U","NORAD_CAT_ID":34965,"ELEMENT_SET_NO":999,"REV_AT_EPOCH":88278,"BSTAR":0.00033751388,"MEAN_MOTION_DOT":1.256e-5,"MEAN_MOTION_DDOT":0},{"OBJECT_NAME":"COSMOS 2251 DEB","OBJECT_ID":"1993-036AEW","EPOCH":"2026-02-26T10:34:30.069984","MEAN_MOTION":14.44660564,"ECCENTRICITY":0.0041714,"INCLINATION":73.9926,"RA_OF_ASC_NODE":112.6011,"ARG_OF_PERICENTER":244.3813,"MEAN_ANOMALY":115.3031,"EPHEMERIS_TYPE":0,"CLASSIFICATION_TYPE":"U","NORAD_CAT_ID":34967,"ELEMENT_SET_NO":999,"REV_AT_EPOCH":66050,"BSTAR":0.0005005,"MEAN_MOTION_DOT":1.725e-5,"MEAN_MOTION_DDOT":0},{"OBJECT_NAME":"COSMOS 2251 DEB","OBJECT_ID":"1993-036AEX","EPOCH":"2026-03-03T10:44:12.477696","MEAN_MOTION":14.59562133,"ECCENTRICITY":0.00870665,"INCLINATION":74.0367,"RA_OF_ASC_NODE":93.2031,"ARG_OF_PERICENTER":194.8864,"MEAN_ANOMALY":164.9738,"EPHEMERIS_TYPE":0,"CLASSIFICATION_TYPE":"U","NORAD_CAT_ID":34968,"ELEMENT_SET_NO":999,"REV_AT_EPOCH":89655,"BSTAR":0.00015745813,"MEAN_MOTION_DOT":7.57e-6,"MEAN_MOTION_DDOT":0},{"OBJECT_NAME":"COSMOS 2251 DEB","OBJECT_ID":"1993-036AEY","EPOCH":"2026-02-23T21:06:10.920384","MEAN_MOTION":14.32401751,"ECCENTRICITY":0.00742504,"INCLINATION":74.0115,"RA_OF_ASC_NODE":249.4806,"ARG_OF_PERICENTER":3.6645,"MEAN_ANOMALY":356.5033,"EPHEMERIS_TYPE":0,"CLASSIFICATION_TYPE":"U","NORAD_CAT_ID":34969,"ELEMENT_SET_NO":999,"REV_AT_EPOCH":66184,"BSTAR":0.0002299142,"MEAN_MOTION_DOT":6.15e-6,"MEAN_MOTION_DDOT":0},{"OBJECT_NAME":"COSMOS 2251 DEB","OBJECT_ID":"1993-036AFA","EPOCH":"2026-03-02T13:22:23.079648","MEAN_MOTION":14.55781583,"ECCENTRICITY":0.0070744,"INCLINATION":73.9781,"RA_OF_ASC_NODE":133.2106,"ARG_OF_PERICENTER":337.8906,"MEAN_ANOMALY":86.071,"EPHEMERIS_TYPE":0,"CLASSIFICATION_TYPE":"U","NORAD_CAT_ID":34971,"ELEMENT_SET_NO":999,"REV_AT_EPOCH":67334,"BSTAR":0.00018216,"MEAN_MOTION_DOT":7.93e-6,"MEAN_MOTION_DDOT":0},{"OBJECT_NAME":"COSMOS 2251 DEB","OBJECT_ID":"1993-036AFB","EPOCH":"2026-03-02T23:20:06.093600","MEAN_MOTION":14.7473645,"ECCENTRICITY":0.003321,"INCLINATION":73.9844,"RA_OF_ASC_NODE":252.8864,"ARG_OF_PERICENTER":27.8226,"MEAN_ANOMALY":122.6027,"EPHEMERIS_TYPE":0,"CLASSIFICATION_TYPE":"U","NORAD_CAT_ID":34972,"ELEMENT_SET_NO":999,"REV_AT_EPOCH":88832,"BSTAR":0.0015421,"MEAN_MOTION_DOT":0.00010386,"MEAN_MOTION_DDOT":0}]
